{
    "links": {
        "self": "http://www.neowsapp.com/rest/v1/neo/3639530?api_key=iIulBulltgU6a56xZRHN4H3l9WmuAYTsLGpBGhQ2"
    },
    "id": "3639530",
    "neo_reference_id": "3639530",
    "name": "(2013 LQ6)",
    "designation": "2013 LQ6",
    "nasa_jpl_url": "http://ssd.jpl.nasa.gov/sbdb.cgi?sstr=3639530",
    "absolute_magnitude_h": 24.8,
    "estimated_diameter": {
        "kilometers": {
            "estimated_diameter_min": 0.0291443905,
            "estimated_diameter_max": 0.0651688382
        },
        "meters": {
            "estimated_diameter_min": 29.1443904535,
            "estimated_diameter_max": 65.1688382168
        },
        "miles": {
            "estimated_diameter_min": 0.018109479,
            "estimated_diameter_max": 0.0404940262
        },
        "feet": {
            "estimated_diameter_min": 95.6180819754,
            "estimated_diameter_max": 213.8085311752
        }
    },
    "is_potentially_hazardous_asteroid": false,
    "close_approach_data": [
        {
            "close_approach_date": "2013-05-17",
            "close_approach_date_full": "2013-May-17 14:20",
            "epoch_date_close_approach": 1368800400000,
            "relative_velocity": {
                "kilometers_per_second": "8.6748691892",
                "kilometers_per_hour": "31229.5290811583",
                "miles_per_hour": "19404.8148893453"
            },
            "miss_distance": {
                "astronomical": "0.0531001969",
                "lunar": "20.6559765941",
                "kilometers": "7943676.352820603",
                "miles": "4935971.6015982014"
            },
            "orbiting_body": "Earth"
        },
        {
            "close_approach_date": "2079-02-12",
            "close_approach_date_full": "2079-Feb-12 07:35",
            "epoch_date_close_approach": 3443412900000,
            "relative_velocity": {
                "kilometers_per_second": "21.8026110547",
                "kilometers_per_hour": "78489.3997969394",
                "miles_per_hour": "48770.2606682705"
            },
            "miss_distance": {
                "astronomical": "0.4870482408",
                "lunar": "189.4617656712",
                "kilometers": "72861379.410927096",
                "miles": "45273961.7844460848"
            },
            "orbiting_body": "Earth"
        }
    ],
    "orbital_data": {
        "orbit_id": "9",
        "orbit_determination_date": "2017-04-06 08:45:39",
        "first_observation_date": "2013-06-04",
        "last_observation_date": "2013-06-12",
        "data_arc_in_days": 8,
        "observations_used": 24,
        "orbit_uncertainty": "8",
        "minimum_orbit_intersection": ".0238922",
        "jupiter_tisserand_invariant": "3.855",
        "epoch_osculation": "2456448.5",
        "eccentricity": ".4654092044625777",
        "semi_major_axis": "1.859567808317876",
        "inclination": "3.336383076236416",
        "ascending_node_longitude": "246.8532371917091",
        "orbital_period": "926.224908078082",
        "perihelion_distance": ".994107834004434",
        "perihelion_argument": "315.9304301544196",
        "aphelion_distance": "2.725027782631318",
        "perihelion_time": "2456402.986911388578",
        "mean_anomaly": "17.68977681037559",
        "mean_motion": ".38867449672348",
        "equinox": "J2000",
        "orbit_class": {
            "orbit_class_type": "APO",
            "orbit_class_description": "Near-Earth asteroid orbits which cross the Earth’s orbit similar to that of 1862 Apollo",
            "orbit_class_range": "a (semi-major axis) > 1.0 AU; q (perihelion) < 1.017 AU"
        }
    },
    "is_sentry_object": false
}